CCSDS_OMM_VERS = 2.0
CREATION_DATE  = 
ORIGINATOR     = 

OBJECT_NAME    = STARLINK-37037
OBJECT_ID      = 2026-042R
CENTER_NAME    = EARTH
REF_FRAME      = TEME
TIME_SYSTEM    = UTC
MEAN_ELEMENT_THEORY = SGP/SGP4

EPOCH          = 2026-03-23T23:21:17.687232
MEAN_MOTION    = 15.78976276
ECCENTRICITY   = .00020999
INCLINATION    = 53.1582
RA_OF_ASC_NODE = 123.0684
ARG_OF_PERICENTER = 249.8498
MEAN_ANOMALY   = 110.2299

EPHEMERIS_TYPE = 0
CLASSIFICATION_TYPE = U
NORAD_CAT_ID   = 68084
ELEMENT_SET_NO = 999
REV_AT_EPOCH   = 434
BSTAR          = -.44025817E-3
MEAN_MOTION_DOT = -.79636E-3
MEAN_MOTION_DDOT = 0

CCSDS_OMM_VERS = 2.0
CREATION_DATE  = 
ORIGINATOR     = 

OBJECT_NAME    = STARLINK-37068
OBJECT_ID      = 2026-042S
CENTER_NAME    = EARTH
REF_FRAME      = TEME
TIME_SYSTEM    = UTC
MEAN_ELEMENT_THEORY = SGP/SGP4

EPOCH          = 2026-03-23T21:48:24.881184
MEAN_MOTION    = 15.80906170
ECCENTRICITY   = .00014884
INCLINATION    = 53.1578
RA_OF_ASC_NODE = 123.3768
ARG_OF_PERICENTER = 46.9731
MEAN_ANOMALY   = 313.1416

EPHEMERIS_TYPE = 0
CLASSIFICATION_TYPE = U
NORAD_CAT_ID   = 68085
ELEMENT_SET_NO = 999
REV_AT_EPOCH   = 433
BSTAR          = .13011491E-2
MEAN_MOTION_DOT = .264531E-2
MEAN_MOTION_DDOT = 0

CCSDS_OMM_VERS = 2.0
CREATION_DATE  = 
ORIGINATOR     = 

OBJECT_NAME    = STARLINK-37067
OBJECT_ID      = 2026-042T
CENTER_NAME    = EARTH
REF_FRAME      = TEME
TIME_SYSTEM    = UTC
MEAN_ELEMENT_THEORY = SGP/SGP4

EPOCH          = 2026-03-23T14:12:08.211744
MEAN_MOTION    = 15.80818266
ECCENTRICITY   = .00013008
INCLINATION    = 53.1578
RA_OF_ASC_NODE = 124.9553
ARG_OF_PERICENTER = 109.9094
MEAN_ANOMALY   = 250.2069

EPHEMERIS_TYPE = 0
CLASSIFICATION_TYPE = U
NORAD_CAT_ID   = 68086
ELEMENT_SET_NO = 999
REV_AT_EPOCH   = 428
BSTAR          = .21600451E-3
MEAN_MOTION_DOT = .42034E-3
MEAN_MOTION_DDOT = 0

CCSDS_OMM_VERS = 2.0
CREATION_DATE  = 
ORIGINATOR     = 

OBJECT_NAME    = STARLINK-37062
OBJECT_ID      = 2026-042U
CENTER_NAME    = EARTH
REF_FRAME      = TEME
TIME_SYSTEM    = UTC
MEAN_ELEMENT_THEORY = SGP/SGP4

EPOCH          = 2026-03-23T21:46:14.172672
MEAN_MOTION    = 15.81007161
ECCENTRICITY   = .00010554
INCLINATION    = 53.1577
RA_OF_ASC_NODE = 123.3663
ARG_OF_PERICENTER = 83.5362
MEAN_ANOMALY   = 276.5781

EPHEMERIS_TYPE = 0
CLASSIFICATION_TYPE = U
NORAD_CAT_ID   = 68087
ELEMENT_SET_NO = 999
REV_AT_EPOCH   = 433
BSTAR          = .17895241E-2
MEAN_MOTION_DOT = .370357E-2
MEAN_MOTION_DDOT = 0

CCSDS_OMM_VERS = 2.0
CREATION_DATE  = 
ORIGINATOR     = 

OBJECT_NAME    = STARLINK-37059
OBJECT_ID      = 2026-042V
CENTER_NAME    = EARTH
REF_FRAME      = TEME
TIME_SYSTEM    = UTC
MEAN_ELEMENT_THEORY = SGP/SGP4

EPOCH          = 2026-03-23T14:09:58.369824
MEAN_MOTION    = 15.80827203
ECCENTRICITY   = .00005353
INCLINATION    = 53.1572
RA_OF_ASC_NODE = 124.9456
ARG_OF_PERICENTER = 86.0646
MEAN_ANOMALY   = 274.0438

EPHEMERIS_TYPE = 0
CLASSIFICATION_TYPE = U
NORAD_CAT_ID   = 68088
ELEMENT_SET_NO = 999
REV_AT_EPOCH   = 428
BSTAR          = .28885048E-3
MEAN_MOTION_DOT = .56564E-3
MEAN_MOTION_DDOT = 0

CCSDS_OMM_VERS = 2.0
CREATION_DATE  = 
ORIGINATOR     = 

OBJECT_NAME    = STARLINK-37004
OBJECT_ID      = 2026-042W
CENTER_NAME    = EARTH
REF_FRAME      = TEME
TIME_SYSTEM    = UTC
MEAN_ELEMENT_THEORY = SGP/SGP4

EPOCH          = 2026-03-23T23:15:07.739712
MEAN_MOTION    = 15.80947517
ECCENTRICITY   = .00010653
INCLINATION    = 53.1574
RA_OF_ASC_NODE = 123.0398
ARG_OF_PERICENTER = 99.3690
MEAN_ANOMALY   = 260.7454

EPHEMERIS_TYPE = 0
CLASSIFICATION_TYPE = U
NORAD_CAT_ID   = 68089
ELEMENT_SET_NO = 999
REV_AT_EPOCH   = 434
BSTAR          = .18492999E-2
MEAN_MOTION_DOT = .382236E-2
MEAN_MOTION_DDOT = 0

CCSDS_OMM_VERS = 2.0
CREATION_DATE  = 
ORIGINATOR     = 

OBJECT_NAME    = STARLINK-36320
OBJECT_ID      = 2026-042X
CENTER_NAME    = EARTH
REF_FRAME      = TEME
TIME_SYSTEM    = UTC
MEAN_ELEMENT_THEORY = SGP/SGP4

EPOCH          = 2026-03-23T22:00:00.999936
MEAN_MOTION    = 15.75218593
ECCENTRICITY   = .00012715
INCLINATION    = 53.1588
RA_OF_ASC_NODE = 123.4451
ARG_OF_PERICENTER = 80.2911
MEAN_ANOMALY   = 271.6163

EPHEMERIS_TYPE = 0
CLASSIFICATION_TYPE = U
NORAD_CAT_ID   = 68090
ELEMENT_SET_NO = 999
REV_AT_EPOCH   = 432
BSTAR          = .10927893E-2
MEAN_MOTION_DOT = .17013E-2
MEAN_MOTION_DDOT = 0

CCSDS_OMM_VERS = 2.0
CREATION_DATE  = 
ORIGINATOR     = 

OBJECT_NAME    = STARLINK-36324
OBJECT_ID      = 2026-042Y
CENTER_NAME    = EARTH
REF_FRAME      = TEME
TIME_SYSTEM    = UTC
MEAN_ELEMENT_THEORY = SGP/SGP4

EPOCH          = 2026-03-23T22:09:06.547680
MEAN_MOTION    = 15.75287846
ECCENTRICITY   = .0002008
INCLINATION    = 53.1584
RA_OF_ASC_NODE = 123.4713
ARG_OF_PERICENTER = 162.2518
MEAN_ANOMALY   = 197.8573

EPHEMERIS_TYPE = 0
CLASSIFICATION_TYPE = U
NORAD_CAT_ID   = 68091
ELEMENT_SET_NO = 999
REV_AT_EPOCH   = 433
BSTAR          = .20597917E-2
MEAN_MOTION_DOT = .328367E-2
MEAN_MOTION_DDOT = 0

CCSDS_OMM_VERS = 2.0
CREATION_DATE  = 
ORIGINATOR     = 

OBJECT_NAME    = STARLINK-36896
OBJECT_ID      = 2026-042Z
CENTER_NAME    = EARTH
REF_FRAME      = TEME
TIME_SYSTEM    = UTC
MEAN_ELEMENT_THEORY = SGP/SGP4

EPOCH          = 2026-03-23T22:00:00.999936
MEAN_MOTION    = 15.75188550
ECCENTRICITY   = .00015866
INCLINATION    = 53.1597
RA_OF_ASC_NODE = 123.3928
ARG_OF_PERICENTER = 93.0167
MEAN_ANOMALY   = 284.6236

EPHEMERIS_TYPE = 0
CLASSIFICATION_TYPE = U
NORAD_CAT_ID   = 68092
ELEMENT_SET_NO = 999
REV_AT_EPOCH   = 433
BSTAR          = .10891963E-2
MEAN_MOTION_DOT = .169331E-2
MEAN_MOTION_DDOT = 0

CCSDS_OMM_VERS = 2.0
CREATION_DATE  = 
ORIGINATOR     = 

OBJECT_NAME    = STARLINK-36251
OBJECT_ID      = 2026-042AA
CENTER_NAME    = EARTH
REF_FRAME      = TEME
TIME_SYSTEM    = UTC
MEAN_ELEMENT_THEORY = SGP/SGP4

EPOCH          = 2026-03-23T20:07:39.506016
MEAN_MOTION    = 15.80872041
ECCENTRICITY   = .00010938
INCLINATION    = 53.1577
RA_OF_ASC_NODE = 123.6478
ARG_OF_PERICENTER = 108.9761
MEAN_ANOMALY   = 251.1380

EPHEMERIS_TYPE = 0
CLASSIFICATION_TYPE = U
NORAD_CAT_ID   = 68093
ELEMENT_SET_NO = 999
REV_AT_EPOCH   = 431
BSTAR          = .13730323E-2
MEAN_MOTION_DOT = .279228E-2
MEAN_MOTION_DDOT = 0

CCSDS_OMM_VERS = 2.0
CREATION_DATE  = 
ORIGINATOR     = 

OBJECT_NAME    = STARLINK-36787
OBJECT_ID      = 2026-042AB
CENTER_NAME    = EARTH
REF_FRAME      = TEME
TIME_SYSTEM    = UTC
MEAN_ELEMENT_THEORY = SGP/SGP4

EPOCH          = 2026-03-23T22:02:34.483488
MEAN_MOTION    = 15.75313250
ECCENTRICITY   = .00012729
INCLINATION    = 53.1588
RA_OF_ASC_NODE = 123.4405
ARG_OF_PERICENTER = 45.4760
MEAN_ANOMALY   = 314.6364

EPHEMERIS_TYPE = 0
CLASSIFICATION_TYPE = U
NORAD_CAT_ID   = 68094
ELEMENT_SET_NO = 999
REV_AT_EPOCH   = 432
BSTAR          = .21288935E-2
MEAN_MOTION_DOT = .34027E-2
MEAN_MOTION_DDOT = 0

CCSDS_OMM_VERS = 2.0
CREATION_DATE  = 
ORIGINATOR     = 

OBJECT_NAME    = STARLINK-36790
OBJECT_ID      = 2026-042AC
CENTER_NAME    = EARTH
REF_FRAME      = TEME
TIME_SYSTEM    = UTC
MEAN_ELEMENT_THEORY = SGP/SGP4

EPOCH          = 2026-03-23T15:35:36.970080
MEAN_MOTION    = 15.80800419
ECCENTRICITY   = .00011642
INCLINATION    = 53.1577
RA_OF_ASC_NODE = 124.6030
ARG_OF_PERICENTER = 113.1381
MEAN_ANOMALY   = 246.9765

EPHEMERIS_TYPE = 0
CLASSIFICATION_TYPE = U
NORAD_CAT_ID   = 68095
ELEMENT_SET_NO = 999
REV_AT_EPOCH   = 428
BSTAR          = .14982231E-3
MEAN_MOTION_DOT = .28872E-3
MEAN_MOTION_DDOT = 0

