STARLINK-37037          
1 68084U 26042R   26082.97312138 -.00079636  00000+0 -44026-3 0  9993
2 68084  53.1582 123.0684 0002099 249.8498 110.2299 15.78976276  4343
STARLINK-37068          
1 68085U 26042S   26082.90862131  .00264531  00000+0  13011-2 0  9997
2 68085  53.1578 123.3768 0001488  46.9731 313.1416 15.80906170  4335
STARLINK-37067          
1 68086U 26042T   26082.59176171  .00042034  00000+0  21600-3 0  9991
2 68086  53.1578 124.9553 0001300 109.9094 250.2069 15.80818266  4287
STARLINK-37062          
1 68087U 26042U   26082.90710848  .00370357  00000+0  17895-2 0  9994
2 68087  53.1577 123.3663 0001055  83.5362 276.5781 15.81007161  4337
STARLINK-37059          
1 68088U 26042V   26082.59025891  .00056564  00000+0  28885-3 0  9990
2 68088  53.1572 124.9456 0000535  86.0646 274.0438 15.80827203  4287
STARLINK-37004          
1 68089U 26042W   26082.96883958  .00382236  00000+0  18493-2 0  9999
2 68089  53.1574 123.0398 0001065  99.3690 260.7454 15.80947517  4348
STARLINK-36320          
1 68090U 26042X   26082.91667824  .00170130  00000+0  10928-2 0  9991
2 68090  53.1588 123.4451 0001271  80.2911 271.6163 15.75218593  4328
STARLINK-36324          
1 68091U 26042Y   26082.92299245  .00328367  00000+0  20598-2 0  9992
2 68091  53.1584 123.4713 0002008 162.2518 197.8573 15.75287846  4331
STARLINK-36896          
1 68092U 26042Z   26082.91667824  .00169331  00000+0  10892-2 0  9994
2 68092  53.1597 123.3928 0001586  93.0167 284.6236 15.75188550  4337
STARLINK-36251          
1 68093U 26042AA  26082.83865169  .00279228  00000+0  13730-2 0  9999
2 68093  53.1577 123.6478 0001093 108.9761 251.1380 15.80872041  4316
STARLINK-36787          
1 68094U 26042AB  26082.91845467  .00340270  00000+0  21289-2 0  9992
2 68094  53.1588 123.4405 0001272  45.4760 314.6364 15.75313250  4324
STARLINK-36790          
1 68095U 26042AC  26082.64973345  .00028872  00000+0  14982-3 0  9994
2 68095  53.1577 124.6030 0001164 113.1381 246.9765 15.80800419  4283
